NORAD_CAT_ID,OBJECT_NAME,OBJECT_TYPE,EPOCH,MEAN_MOTION,ECCENTRICITY,INCLINATION,RA_OF_ASC_NODE,ARG_OF_PERICENTER,MEAN_ANOMALY,BSTAR,MEAN_MOTION_DOT,MEAN_MOTION_DDOT,TLE_LINE0,TLE_LINE1,TLE_LINE2,SEMIMAJOR_AXIS,PERIOD,APOGEE,PERIGEE,DECAYED
53713.0,STARLINK-4698,PAYLOAD,2023-06-20 20:18:44,15.08841098,0.0001088,53.2178,30.7639,78.8343,281.2772,-6.4235e-06,-3.9e-06,0.0,0 STARLINK-4698,1 53713U 22107P   23171.84634729 -.00000390  00000-0 -64235-5 0  9997,2 53713  53.2178  30.7639 0001088  78.8343 281.2772 15.08841098 44523,6917.877,95.437,540.495,538.989,0.0
53713.0,STARLINK-4698,PAYLOAD,2023-06-21 18:34:08,15.08837503,0.0001156,53.2183,26.6005,87.8104,272.302,7.2236e-05,8.62e-06,0.0,0 STARLINK-4698,1 53713U 22107P   23172.77370770  .00000862  00000-0  72236-4 0  9994,2 53713  53.2183  26.6005 0001156  87.8104 272.3020 15.08837503 44221,6917.888,95.438,540.553,538.953,0.0
53713.0,STARLINK-4698,PAYLOAD,2023-06-21 20:09:31,15.08844444,0.0001197,53.2184,26.3031,75.9904,284.1221,3.2583e-05,2.31e-06,0.0,0 STARLINK-4698,1 53713U 22107P   23172.83994559  .00000231  00000-0  32583-4 0  9999,2 53713  53.2184  26.3031 0001197  75.9904 284.1221 15.08844444 44674,6917.867,95.437,540.56,538.904,0.0
53713.0,STARLINK-4698,PAYLOAD,2023-06-22 20:00:18,15.08838343,0.0001012,53.2175,21.8426,96.6058,263.5049,9.4653e-05,1.219e-05,0.0,0 STARLINK-4698,1 53713U 22107P   23173.83354776  .00001219  00000-0  94653-4 0  9994,2 53713  53.2175  21.8426 0001012  96.6058 263.5049 15.08838343 44386,6917.885,95.438,540.451,539.05,0.0
53713.0,STARLINK-4698,PAYLOAD,2023-06-24 06:58:47,15.08842625,0.0001119,53.2179,15.3011,92.6707,267.4414,2.5249e-05,1.14e-06,0.0,0 STARLINK-4698,1 53713U 22107P   23175.29082778  .00000114  00000-0  25249-4 0  9994,2 53713  53.2179  15.3011 0001119  92.6707 267.4414 15.08842625 44605,6917.872,95.437,540.511,538.963,0.0
53713.0,STARLINK-4698,PAYLOAD,2023-06-24 22:52:38,15.088493,0.0001152,53.218,12.3279,93.2478,266.8646,7.7995e-05,9.54e-06,0.0,0 STARLINK-4698,1 53713U 22107P   23175.95322278  .00000954  00000-0  77995-4 0  9996,2 53713  53.2180  12.3279 0001152  93.2478 266.8646 15.08849300 44707,6917.852,95.437,540.514,538.92,0.0
53713.0,STARLINK-4698,PAYLOAD,2023-06-25 16:21:53,15.08837017,0.0001136,53.2181,9.0571,96.2399,263.8723,9.4815e-05,1.221e-05,0.0,0 STARLINK-4698,1 53713U 22107P   23176.68187059  .00001221  00000-0  94815-4 0  9991,2 53713  53.2181   9.0571 0001136  96.2399 263.8723 15.08837017 44810,6917.89,95.438,540.54,538.969,0.0
53713.0,STARLINK-4698,PAYLOAD,2023-06-25 22:43:25,15.08843538,0.0001169,53.2181,7.8676,95.5853,264.5273,9.3478e-05,1.2e-05,0.0,0 STARLINK-4698,1 53713U 22107P   23176.94682684  .00001200  00000-0  93478-4 0  9995,2 53713  53.2181   7.8676 0001169  95.5853 264.5273 15.08843538 44852,6917.87,95.437,540.543,538.926,0.0
53713.0,STARLINK-4698,PAYLOAD,2023-06-26 16:12:41,15.08834072,0.000113,53.2174,4.5957,96.4263,263.6858,7.3049e-07,-2.76e-06,0.0,0 STARLINK-4698,1 53713U 22107P   23177.67547727 -.00000276  00000-0  73049-6 0  9991,2 53713  53.2174   4.5957 0001130  96.4263 263.6858 15.08834072 44967,6917.899,95.438,540.545,538.982,0.0
53713.0,STARLINK-4698,PAYLOAD,2023-06-26 20:58:50,15.08843542,0.0001083,53.2177,3.7041,94.9116,265.2,3.7211e-05,3.05e-06,0.0,0 STARLINK-4698,1 53713U 22107P   23177.87419031  .00000305  00000-0  37211-4 0  9990,2 53713  53.2177   3.7041 0001083  94.9116 265.2000 15.08843542 44994,6917.87,95.437,540.484,538.985,0.0
53713.0,STARLINK-4698,PAYLOAD,2023-06-27 11:17:18,15.08834364,0.0001088,53.2178,1.0283,102.7149,257.3965,7.3419e-05,8.81e-06,0.0,0 STARLINK-4698,1 53713U 22107P   23178.47035681  .00000881  00000-0  73419-4 0  9991,2 53713  53.2178   1.0283 0001088 102.7149 257.3965 15.08834364 45088,6917.898,95.438,540.515,539.01,0.0
53713.0,STARLINK-4698,PAYLOAD,2023-06-28 04:46:32,15.08842768,0.0001,53.2177,357.757,92.9103,267.2004,6.163e-05,6.93e-06,0.0,0 STARLINK-4698,1 53713U 22107P   23179.19899252  .00000693  00000-0  61630-4 0  9996,2 53713  53.2177 357.7570 0001000  92.9103 267.2004 15.08842768 45194,6917.872,95.437,540.429,539.045,0.0
53713.0,STARLINK-4698,PAYLOAD,2023-06-28 17:29:38,15.08835102,0.0001087,53.2182,355.379,100.3694,259.7421,5.5702e-05,5.99e-06,0.0,0 STARLINK-4698,1 53713U 22107P   23179.72892055  .00000599  00000-0  55702-4 0  9997,2 53713  53.2182 355.3790 0001087 100.3694 259.7421 15.08835102 45274,6917.895,95.438,540.512,539.008,0.0
53713.0,STARLINK-4698,PAYLOAD,2023-06-29 18:55:48,15.08844397,0.0001077,53.2185,350.6214,90.5662,269.5453,0.000135,1.862e-05,0.0,0 STARLINK-4698,1 53713U 22107P   23180.78875406  .00001862  00000-0  13500-3 0  9999,2 53713  53.2185 350.6214 0001077  90.5662 269.5453 15.08844397 45438,6917.867,95.437,540.477,538.987,0.0
53713.0,STARLINK-4698,PAYLOAD,2023-06-30 17:11:13,15.08829726,7.43e-05,53.2173,346.4569,83.1222,276.9854,0.000115,1.543e-05,0.0,0 STARLINK-4698,1 53713U 22107P   23181.71612372  .00001543  00000-0  11500-3 0  9998,2 53713  53.2173 346.4569 0000743  83.1222 276.9854 15.08829726 45571,6917.912,95.438,540.291,539.263,0.0
53713.0,STARLINK-4698,PAYLOAD,2023-06-30 20:21:59,15.08838697,0.0001025,53.2174,345.8621,85.4328,274.6781,3.9394e-05,3.39e-06,0.0,0 STARLINK-4698,1 53713U 22107P   23181.84859997  .00000339  00000-0  39394-4 0  9992,2 53713  53.2174 345.8621 0001025  85.4328 274.6781 15.08838697 45593,6917.884,95.438,540.458,539.04,0.0
53713.0,STARLINK-4698,PAYLOAD,2023-07-01 20:12:45,15.08845914,0.0001015,53.2176,341.4021,88.9747,271.1361,4.5837e-05,4.42e-06,0.0,0 STARLINK-4698,1 53713U 22107P   23182.84219448  .00000442  00000-0  45837-4 0  9998,2 53713  53.2176 341.4021 0001015  88.9747 271.1361 15.08845914 45746,6917.862,95.437,540.429,539.025,0.0
53713.0,STARLINK-4698,PAYLOAD,2023-07-02 10:31:14,15.08837637,0.0001023,53.2171,338.7263,87.5518,272.5591,8.2871e-05,1.031e-05,0.0,0 STARLINK-4698,1 53713U 22107P   23183.43835814  .00001031  00000-0  82871-4 0  9999,2 53713  53.2171 338.7263 0001023  87.5518 272.5591 15.08837637 45831,6917.888,95.438,540.46,539.045,0.0
53713.0,STARLINK-4698,PAYLOAD,2023-07-03 16:43:33,15.08848323,0.0001106,53.218,333.0754,96.0517,264.0601,6.4262e-05,7.35e-06,0.0,0 STARLINK-4698,1 53713U 22107P   23184.69691041  .00000735  00000-0  64262-4 0  9994,2 53713  53.2180 333.0754 0001106  96.0517 264.0601 15.08848323 46024,6917.855,95.437,540.485,538.955,0.0
53713.0,STARLINK-4698,PAYLOAD,2023-07-04 10:12:48,15.08834453,9.4e-05,53.2176,329.8052,95.4835,264.6265,-2.4458e-05,-6.77e-06,0.0,0 STARLINK-4698,1 53713U 22107P   23185.42556234 -.00000677  00000-0 -24458-4 0  9990,2 53713  53.2176 329.8052 0000940  95.4835 264.6265 15.08834453 46137,6917.897,95.438,540.413,539.112,0.0
53713.0,STARLINK-4698,PAYLOAD,2023-07-04 19:45:07,15.0884026,0.0001011,53.2176,328.021,96.3515,263.7593,2.6258e-05,1.3e-06,0.0,0 STARLINK-4698,1 53713U 22107P   23185.82299807  .00000130  00000-0  26258-4 0  9996,2 53713  53.2176 328.0210 0001011  96.3515 263.7593 15.08840260 46192,6917.88,95.438,540.444,539.045,0.0
53713.0,STARLINK-4698,PAYLOAD,2023-07-05 13:14:22,15.08835419,0.0001064,53.2179,324.7502,97.3042,262.8071,-2.1505e-05,-6.3e-06,0.0,0 STARLINK-4698,1 53713U 22107P   23186.55164461 -.00000630  00000-0 -21505-4 0  9991,2 53713  53.2179 324.7502 0001064  97.3042 262.8071 15.08835419 46300,6917.894,95.438,540.495,539.023,0.0
53713.0,STARLINK-4698,PAYLOAD,2023-07-06 17:51:18,15.08843539,0.0001007,53.2181,319.3982,94.4007,265.71,0.00017479,2.495e-05,0.0,0 STARLINK-4698,1 53713U 22107P   23187.74395879  .00002495  00000-0  17479-3 0  9995,2 53713  53.2181 319.3982 0001007  94.4007 265.7100 15.08843539 46487,6917.87,95.437,540.431,539.038,0.0
53713.0,STARLINK-4698,PAYLOAD,2023-07-07 09:45:09,15.08837847,0.0001131,53.2187,316.4251,92.4692,267.6429,0.00010381,1.365e-05,0.0,0 STARLINK-4698,1 53713U 22107P   23188.40636524  .00001365  00000-0  10381-3 0  9994,2 53713  53.2187 316.4251 0001131  92.4692 267.6429 15.08837847 46587,6917.887,95.438,540.534,538.97,0.0
53713.0,STARLINK-4698,PAYLOAD,2023-07-07 17:42:05,15.08848564,0.0001064,53.2181,314.938,89.7884,270.323,0.00016926,2.408e-05,0.0,0 STARLINK-4698,1 53713U 22107P   23188.73755832  .00002408  00000-0  16926-3 0  9994,2 53713  53.2181 314.9380 0001064  89.7884 270.3230 15.08848564 46639,6917.854,95.437,540.455,538.983,0.0
53713.0,STARLINK-4698,PAYLOAD,2023-07-08 01:39:01,15.08842926,0.0001177,53.2185,313.452,77.7974,282.315,0.0001204,1.629e-05,0.0,0 STARLINK-4698,1 53713U 22107P   23189.06876357  .00001629  00000-0  12040-3 0  9994,2 53713  53.2185 313.4520 0001177  77.7974 282.3150 15.08842926 46680,6917.871,95.437,540.551,538.922,0.0
53713.0,STARLINK-4698,PAYLOAD,2023-07-09 12:37:30,15.08838426,0.0001071,53.2178,306.9089,89.0497,271.0618,1.7163e-06,-2.6e-06,0.0,0 STARLINK-4698,1 53713U 22107P   23190.52604842 -.00000260  00000-0  17163-5 0  9999,2 53713  53.2178 306.9089 0001071  89.0497 271.0618 15.08838426 46907,6917.885,95.438,540.491,539.009,0.0
53713.0,STARLINK-4698,PAYLOAD,2023-07-10 14:03:40,15.08836541,0.0001064,53.2177,302.1512,84.2061,275.9052,0.00026183,3.881e-05,0.0,0 STARLINK-4698,1 53713U 22107P   23191.58588476  .00003881  00000-0  26183-3 0  9991,2 53713  53.2177 302.1512 0001064  84.2061 275.9052 15.08836541 47060,6917.891,95.438,540.492,539.02,0.0
53713.0,STARLINK-4698,PAYLOAD,2023-07-11 07:32:55,15.08835969,0.0001053,53.2179,298.8808,84.4829,275.6283,9.4894e-05,1.223e-05,0.0,0 STARLINK-4698,1 53713U 22107P   23192.31452794  .00001223  00000-0  94894-4 0  9999,2 53713  53.2179 298.8808 0001053  84.4829 275.6283 15.08835969 47171,6917.893,95.438,540.486,539.029,0.0
53713.0,STARLINK-4698,PAYLOAD,2023-07-12 13:45:14,15.08847696,0.0001059,53.2183,293.2317,94.2495,265.8618,5.8204e-05,6.39e-06,0.0,0 STARLINK-4698,1 53713U 22107P   23193.57308159  .00000639  00000-0  58204-4 0  9998,2 53713  53.2183 293.2317 0001059  94.2495 265.8618 15.08847696 47368,6917.857,95.437,540.454,538.989,0.0
